USA 119                 
1 23893U 96029A   26068.41677233  .00001640  00000+0  29026-3 0  9998
2 23893  63.3196  93.1190 0846389  47.6314 319.3281 13.45886981 91843
STARLINK-2742           
1 48688U 21044BC  26068.26436126 -.00001716  00000+0 -47126-4 0  9997
2 48688  53.1597  66.9855 0002080  56.0767 304.0431 15.29359454264437
